JY1SAT (JO-97)          
1 43803U 18099AX  26068.68634132  .00017774  00000+0  60804-3 0  9996
2 43803  97.4249 131.3625 0004723 256.6795 103.3919 15.30302628398390
STARLINK-31722          
1 59549U 24074R   26068.13082997 -.00003251  00000+0 -10874-3 0  9995
2 59549  43.0032 346.2692 0000885 267.8976  92.1774 15.27564383105936
